NORAD_CAT_ID,OBJECT_NAME,OBJECT_TYPE,EPOCH,MEAN_MOTION,ECCENTRICITY,INCLINATION,RA_OF_ASC_NODE,ARG_OF_PERICENTER,MEAN_ANOMALY,BSTAR,MEAN_MOTION_DOT,MEAN_MOTION_DDOT,TLE_LINE0,TLE_LINE1,TLE_LINE2,SEMIMAJOR_AXIS,PERIOD,APOGEE,PERIGEE,DECAYED
54787.0,STARLINK-5441,PAYLOAD,2024-04-17 17:51:01,15.08831993,2.93e-05,53.2184,265.6092,133.4068,226.6949,2.1165e-05,4.9e-07,0.0,0 STARLINK-5441,1 54787U 22175AF  24108.74377094  .00000049  00000-0  21165-4 0  9996,2 54787  53.2184 265.6092 0000293 133.4068 226.6949 15.08831993 73459,6917.905,95.438,539.973,539.567,0.0
54787.0,STARLINK-5441,PAYLOAD,2024-04-18 16:06:25,15.08842982,0.0001271,53.2176,261.4496,87.4348,272.679,0.00012468,1.697e-05,0.0,0 STARLINK-5441,1 54787U 22175AF  24109.67112896  .00001697  00000-0  12468-3 0  9991,2 54787  53.2176 261.4496 0001271  87.4348 272.6790 15.08842982 73598,6917.871,95.437,540.616,538.857,0.0
54787.0,STARLINK-5441,PAYLOAD,2024-04-19 14:21:50,15.08836856,0.0001453,53.2176,257.2842,73.936,286.1792,0.00026634,3.953e-05,0.0,0 STARLINK-5441,1 54787U 22175AF  24110.59849567  .00003953  00000-0  26634-3 0  9993,2 54787  53.2176 257.2842 0001453  73.9360 286.1792 15.08836856 75892,6917.89,95.438,540.76,538.75,0.0
54787.0,STARLINK-5441,PAYLOAD,2024-04-19 19:07:59,15.0884634,0.000144,53.219,256.391,78.7156,281.3998,0.00035054,5.296e-05,0.0,0 STARLINK-5441,1 54787U 22175AF  24110.79721081  .00005296  00000-0  35054-3 0  9993,2 54787  53.2190 256.3910 0001440  78.7156 281.3998 15.08846340 73764,6917.861,95.437,540.722,538.73,0.0
54787.0,STARLINK-5441,PAYLOAD,2024-04-20 14:12:36,15.0885052,0.0002096,53.2199,252.8195,58.4411,301.6785,0.00010488,1.382e-05,0.0,0 STARLINK-5441,1 54787U 22175AF  24111.59208914  .00001382  00000-0  10488-3 0  9993,2 54787  53.2199 252.8195 0002096  58.4411 301.6785 15.08850520 76045,6917.848,95.437,541.163,538.263,0.0
54787.0,STARLINK-5441,PAYLOAD,2024-04-20 18:58:45,15.08851217,0.0002026,53.2197,251.9289,64.436,295.6841,0.00012912,1.768e-05,0.0,0 STARLINK-5441,1 54787U 22175AF  24111.79080795  .00001768  00000-0  12912-3 0  9992,2 54787  53.2197 251.9289 0002026  64.4360 295.6841 15.08851217 73912,6917.846,95.437,541.113,538.31,0.0
54787.0,STARLINK-5441,PAYLOAD,2024-04-21 14:03:23,15.0884074,0.0001579,53.2172,248.3624,82.7362,277.381,-4.5794e-05,-1.017e-05,0.0,0 STARLINK-5441,1 54787U 22175AF  24112.58569028 -.00001017  00000-0 -45794-4 0  9995,2 54787  53.2172 248.3624 0001579  82.7362 277.3810 15.08840740 76190,6917.878,95.438,540.835,538.651,0.0
54787.0,STARLINK-5441,PAYLOAD,2024-04-21 18:49:33,15.08843268,0.0001673,53.2192,247.4714,105.6753,254.4424,-4.7943e-05,-1.051e-05,0.0,0 STARLINK-5441,1 54787U 22175AF  24112.78441025 -.00001051  00000-0 -47943-4 0  9999,2 54787  53.2192 247.4714 0001673 105.6753 254.4424 15.08843268 76225,6917.87,95.437,540.893,538.578,0.0
54787.0,STARLINK-5441,PAYLOAD,2024-04-22 09:08:01,15.08843761,0.0001896,53.2182,244.7938,108.5402,251.5796,-9.9289e-05,-1.868e-05,0.0,0 STARLINK-5441,1 54787U 22175AF  24113.38057327 -.00001868  00000-0 -99289-4 0  9990,2 54787  53.2182 244.7938 0001896 108.5402 251.5796 15.08843761 74150,6917.869,95.437,541.046,538.422,0.0
54787.0,STARLINK-5441,PAYLOAD,2024-04-22 15:29:34,15.08835193,0.0001745,53.2182,243.6038,110.1264,249.9916,-9.3752e-05,-1.78e-05,0.0,0 STARLINK-5441,1 54787U 22175AF  24113.64553737 -.00001780  00000-0 -93752-4 0  9997,2 54787  53.2182 243.6038 0001745 110.1264 249.9916 15.08835193 74196,6917.895,95.438,540.967,538.553,0.0
54787.0,STARLINK-5441,PAYLOAD,2024-04-23 13:44:58,15.08826696,0.0001674,53.2177,239.4417,116.8357,243.2807,5.1832e-05,5.37e-06,0.0,0 STARLINK-5441,1 54787U 22175AF  24114.57290258  .00000537  00000-0  51832-4 0  9996,2 54787  53.2177 239.4417 0001674 116.8357 243.2807 15.08826696 76490,6917.921,95.438,540.944,538.628,0.0
54787.0,STARLINK-5441,PAYLOAD,2024-04-24 12:00:22,15.08833018,0.0001651,53.2173,235.2771,119.8294,240.2862,0.00011478,1.539e-05,0.0,0 STARLINK-5441,1 54787U 22175AF  24115.50026162  .00001539  00000-0  11478-3 0  9995,2 54787  53.2173 235.2771 0001651 119.8294 240.2862 15.08833018 74471,6917.902,95.438,540.909,538.625,0.0
54787.0,STARLINK-5441,PAYLOAD,2024-04-24 13:35:45,15.08873023,0.000152,53.2185,234.9859,133.2294,226.8825,-0.00043202,-7.163e-05,0.0,0 STARLINK-5441,1 54787U 22175AF  24115.56649357 -.00007163  00000-0 -43202-3 0  9999,2 54787  53.2185 234.9859 0001520 133.2294 226.8825 15.08873023 76642,6917.779,95.435,540.696,538.593,0.0
54787.0,STARLINK-5441,PAYLOAD,2024-04-25 13:26:33,15.08831434,0.0001229,53.2177,230.5257,109.733,250.3794,5.5266e-05,5.92e-06,0.0,0 STARLINK-5441,1 54787U 22175AF  24116.56011146  .00000592  00000-0  55266-4 0  9990,2 54787  53.2177 230.5257 0001229 109.7330 250.3794 15.08831434 74636,6917.907,95.438,540.622,538.921,0.0
54787.0,STARLINK-5441,PAYLOAD,2024-04-25 15:01:56,15.08833933,0.000108,53.2173,230.2284,65.5725,294.538,8.2369e-05,1.023e-05,0.0,0 STARLINK-5441,1 54787U 22175AF  24116.62635088  .00001023  00000-0  82369-4 0  9998,2 54787  53.2173 230.2284 0001080  65.5725 294.5380 15.08833933 76809,6917.899,95.438,540.511,539.017,0.0
54787.0,STARLINK-5441,PAYLOAD,2024-04-26 13:17:20,15.08844243,0.0001665,53.2181,226.0705,50.646,309.4679,0.00011372,1.522e-05,0.0,0 STARLINK-5441,1 54787U 22175AF  24117.55370573  .00001522  00000-0  11372-3 0  9995,2 54787  53.2181 226.0705 0001665  50.6460 309.4679 15.08844243 74787,6917.867,95.437,540.884,538.581,0.0
54787.0,STARLINK-5441,PAYLOAD,2024-04-26 14:52:42,15.08852574,0.000129,53.2183,225.7676,76.8826,283.231,0.00020741,3.016e-05,0.0,0 STARLINK-5441,1 54787U 22175AF  24117.61993616  .00003016  00000-0  20741-3 0  9991,2 54787  53.2183 225.7676 0001290  76.8826 283.2310 15.08852574 74790,6917.842,95.437,540.599,538.815,0.0
54787.0,STARLINK-5441,PAYLOAD,2024-04-27 13:08:06,15.08840661,0.0001267,53.2176,221.6048,99.3384,260.7751,7.6962e-05,9.37e-06,0.0,0 STARLINK-5441,1 54787U 22175AF  24118.54730293  .00000937  00000-0  76962-4 0  9990,2 54787  53.2176 221.6048 0001267  99.3384 260.7751 15.08840661 74932,6917.878,95.438,540.62,538.867,0.0
54787.0,STARLINK-5441,PAYLOAD,2024-04-28 12:58:55,15.08829602,0.0001446,53.2186,217.1454,104.6961,255.4191,-0.00021376,-3.687e-05,0.0,0 STARLINK-5441,1 54787U 22175AF  24119.54091876 -.00003687  00000-0 -21376-3 0  9993,2 54787  53.2186 217.1454 0001446 104.6961 255.4191 15.08829602 75082,6917.912,95.438,540.778,538.777,0.0
54787.0,STARLINK-5441,PAYLOAD,2024-04-28 16:09:41,15.08836231,0.0001238,53.2183,216.549,104.6757,255.4373,-0.00016778,-2.957e-05,0.0,0 STARLINK-5441,1 54787U 22175AF  24119.67339350 -.00002957  00000-0 -16778-3 0  9998,2 54787  53.2183 216.5490 0001238 104.6757 255.4373 15.08836231 75105,6917.892,95.438,540.613,538.9,0.0
54787.0,STARLINK-5441,PAYLOAD,2024-04-29 12:49:42,15.08824169,0.0001426,53.2183,212.6843,118.4196,241.694,-8.423e-05,-1.628e-05,0.0,0 STARLINK-5441,1 54787U 22175AF  24120.53451905 -.00001628  00000-0 -84230-4 0  9999,2 54787  53.2183 212.6843 0001426 118.4196 241.6940 15.08824169 77390,6917.929,95.439,540.78,538.807,0.0
54787.0,STARLINK-5441,PAYLOAD,2024-04-30 12:40:28,15.08834227,0.0001269,53.218,208.227,115.3908,244.7216,0.0002002,2.899e-05,0.0,0 STARLINK-5441,1 54787U 22175AF  24121.52811027  .00002899  00000-0  20020-3 0  9999,2 54787  53.2180 208.2270 0001269 115.3908 244.7216 15.08834227 75387,6917.898,95.438,540.641,538.885,0.0
54787.0,STARLINK-5441,PAYLOAD,2024-04-30 22:12:46,15.0884928,0.0001262,53.2185,206.4448,119.21,240.9018,0.0001437,2e-05,0.0,0 STARLINK-5441,1 54787U 22175AF  24121.92554368  .00002000  00000-0  14370-3 0  9990,2 54787  53.2185 206.4448 0001262 119.2100 240.9018 15.08849280 77609,6917.852,95.437,540.59,538.844,0.0
54787.0,STARLINK-5441,PAYLOAD,2024-05-01 12:31:15,15.08847619,0.000126,53.2197,203.7706,115.9979,244.1143,8.6543e-05,1.09e-05,0.0,0 STARLINK-5441,1 54787U 22175AF  24122.52170538  .00001090  00000-0  86543-4 0  9990,2 54787  53.2197 203.7706 0001260 115.9979 244.1143 15.08847619 77692,6917.857,95.437,540.594,538.85,0.0
54787.0,STARLINK-5441,PAYLOAD,2024-05-01 22:03:33,15.08848577,0.0001493,53.2177,201.9805,103.3856,256.7303,0.00016586,2.353e-05,0.0,0 STARLINK-5441,1 54787U 22175AF  24122.91914024  .00002353  00000-0  16586-3 0  9991,2 54787  53.2177 201.9805 0001493 103.3856 256.7303 15.08848577 77751,6917.854,95.437,540.752,538.686,0.0
54787.0,STARLINK-5441,PAYLOAD,2024-05-02 12:22:03,15.08834413,0.0001352,53.2184,199.3081,111.591,248.5227,-9.3901e-05,-1.782e-05,0.0,0 STARLINK-5441,1 54787U 22175AF  24123.51531830 -.00001782  00000-0 -93901-4 0  9992,2 54787  53.2184 199.3081 0001352 111.5910 248.5227 15.08834413 75689,6917.897,95.438,540.698,538.827,0.0
54787.0,STARLINK-5441,PAYLOAD,2024-05-02 21:54:21,15.0884245,0.0001392,53.2191,197.5231,100.4246,259.6903,-2.4121e-05,-6.72e-06,0.0,0 STARLINK-5441,1 54787U 22175AF  24123.91275094 -.00000672  00000-0 -24121-4 0  9998,2 54787  53.2191 197.5231 0001392 100.4246 259.6903 15.08842450 75748,6917.873,95.437,540.701,538.775,0.0
54787.0,STARLINK-5441,PAYLOAD,2024-05-03 12:12:49,15.08848231,0.0001427,53.2182,194.8454,92.3457,267.7699,7.2036e-06,-1.73e-06,0.0,0 STARLINK-5441,1 54787U 22175AF  24124.50890501 -.00000173  00000-0  72036-5 0  9994,2 54787  53.2182 194.8454 0001427  92.3457 267.7699 15.08848231 77991,6917.855,95.437,540.707,538.733,0.0
54787.0,STARLINK-5441,PAYLOAD,2024-05-03 21:45:06,15.08891955,0.00015,53.2183,193.0618,103.5163,256.5997,-0.00054037,-8.89e-05,0.0,0 STARLINK-5441,1 54787U 22175AF  24124.90632742 -.00008890  00000-0 -54037-3 0  9993,2 54787  53.2183 193.0618 0001500 103.5163 256.5997 15.08891955 78052,6917.722,95.434,540.624,538.549,0.0
54787.0,STARLINK-5441,PAYLOAD,2024-05-04 12:03:38,15.08815743,0.0001265,53.2177,190.3851,90.1972,269.9165,-7.2082e-05,-1.434e-05,0.0,0 STARLINK-5441,1 54787U 22175AF  24125.50253185 -.00001434  00000-0 -72082-4 0  9998,2 54787  53.2177 190.3851 0001265  90.1972 269.9165 15.08815743 75986,6917.955,95.439,540.695,538.944,0.0
